{
  "type": "FeatureCollection",
  "features": [
    {
      "type": "Feature",
      "properties": {
        "kind": "archipelago",
        "name": "Quần đảo Hoàng Sa",
        "name_en": "Paracel Islands",
        "admin_note": "Thuộc huyện Hoàng Sa, thành phố Đà Nẵng",
        "description": "Lớp hiển thị bổ sung biển đảo Việt Nam; vùng khoanh là khung bao tham khảo để không bỏ sót quần đảo trên bản đồ.",
        "source_note": "Khung bao tham khảo theo các điểm cực được công bố công khai; không phải đường biên pháp lý."
      },
      "geometry": {
        "type": "Polygon",
        "coordinates": [
          [
            [
              111.18,
              15.73
            ],
            [
              112.9,
              15.73
            ],
            [
              112.9,
              17.12
            ],
            [
              111.18,
              17.12
            ],
            [
              111.18,
              15.73
            ]
          ]
        ]
      }
    },
    {
      "type": "Feature",
      "properties": {
        "kind": "archipelago",
        "name": "Quần đảo Trường Sa",
        "name_en": "Spratly Islands",
        "admin_note": "Thuộc huyện Trường Sa, tỉnh Khánh Hòa",
        "description": "Lớp hiển thị bổ sung biển đảo Việt Nam; vùng khoanh là khung bao tham khảo để thể hiện phạm vi quần đảo trên bản đồ.",
        "source_note": "Khung bao tham khảo để hiển thị bản đồ; không phải đường biên pháp lý."
      },
      "geometry": {
        "type": "Polygon",
        "coordinates": [
          [
            [
              111.3,
              6.7
            ],
            [
              117.0,
              6.7
            ],
            [
              117.0,
              12.2
            ],
            [
              111.3,
              12.2
            ],
            [
              111.3,
              6.7
            ]
          ]
        ]
      }
    },
    {
      "type": "Feature",
      "properties": {
        "kind": "island",
        "name": "Đảo Phú Quốc",
        "admin_note": "Kiên Giang/An Giang sau sắp xếp",
        "description": "Đảo/quần đảo tiêu biểu được bổ sung để bản đồ Việt Nam không bị thiếu phần biển đảo.",
        "source_note": "Tọa độ tâm và vòng khoanh là tham khảo hiển thị."
      },
      "geometry": {
        "type": "Polygon",
        "coordinates": [
          [
            [
              104.14833915343797,
              10.2899
            ],
            [
              104.14584247242918,
              10.317978217732705
            ],
            [
              104.13842828979188,
              10.345203293027865
            ],
            [
              104.12632188171372,
              10.37074800574919
            ],
            [
              104.10989109527804,
              10.393836192726893
            ],
            [
              104.08963517161631,
              10.413766331082838
            ],
            [
              104.06616957671899,
              10.42993285364822
            ],
            [
              104.04020730081287,
              10.441844548815544
            ],
            [
              104.01253719451383,
              10.449139485754758
            ],
            [
              103.984,
              10.451596011498383
            ],
            [
              103.95546280548616,
              10.449139485754758
            ],
            [
              103.92779269918712,
              10.441844548815544
            ],
            [
              103.901830423281,
              10.42993285364822
            ],
            [
              103.87836482838368,
              10.413766331082838
            ],
            [
              103.85810890472195,
              10.393836192726893
            ],
            [
              103.84167811828627,
              10.37074800574919
            ],
            [
              103.82957171020811,
              10.345203293027865
            ],
            [
              103.82215752757081,
              10.317978217732705
            ],
            [
              103.81966084656202,
              10.2899
            ],
            [
              103.82215752757081,
              10.261821782267294
            ],
            [
              103.82957171020811,
              10.234596706972134
            ],
            [
              103.84167811828627,
              10.209051994250808
            ],
            [
              103.85810890472195,
              10.185963807273106
            ],
            [
              103.87836482838368,
              10.16603366891716
            ],
            [
              103.901830423281,
              10.14986714635178
            ],
            [
              103.92779269918712,
              10.137955451184455
            ],
            [
              103.95546280548616,
              10.13066051424524
            ],
            [
              103.984,
              10.128203988501616
            ],
            [
              104.01253719451383,
              10.13066051424524
            ],
            [
              104.04020730081287,
              10.137955451184455
            ],
            [
              104.06616957671899,
              10.14986714635178
            ],
            [
              104.08963517161631,
              10.16603366891716
            ],
            [
              104.10989109527804,
              10.185963807273106
            ],
            [
              104.12632188171372,
              10.209051994250808
            ],
            [
              104.13842828979188,
              10.234596706972134
            ],
            [
              104.14584247242918,
              10.261821782267294
            ],
            [
              104.14833915343797,
              10.2899
            ]
          ]
        ]
      }
    },
    {
      "type": "Feature",
      "properties": {
        "kind": "island_group",
        "name": "Quần đảo Côn Đảo",
        "admin_note": "Bà Rịa - Vũng Tàu/TP.HCM sau sắp xếp",
        "description": "Đảo/quần đảo tiêu biểu được bổ sung để bản đồ Việt Nam không bị thiếu phần biển đảo.",
        "source_note": "Tọa độ tâm và vòng khoanh là tham khảo hiển thị."
      },
      "geometry": {
        "type": "Polygon",
        "coordinates": [
          [
            [
              106.71504716068236,
              8.683
            ],
            [
              106.71339048928395,
              8.701718811821804
            ],
            [
              106.70847081221088,
              8.719868862018577
            ],
            [
              106.7004376113615,
              8.73689867049946
            ],
            [
              106.68953497147862,
              8.752290795151263
            ],
            [
              106.67609416375812,
              8.765577554055225
            ],
            [
              106.66052358034118,
              8.77635523576548
            ],
            [
              106.64329632552584,
              8.78429636587703
            ],
            [
              106.62493584073223,
              8.789159657169838
            ],
            [
              106.606,
              8.790797340998921
            ],
            [
              106.58706415926775,
              8.789159657169838
            ],
            [
              106.56870367447415,
              8.78429636587703
            ],
            [
              106.55147641965881,
              8.77635523576548
            ],
            [
              106.53590583624187,
              8.765577554055225
            ],
            [
              106.52246502852137,
              8.752290795151263
            ],
            [
              106.5115623886385,
              8.73689867049946
            ],
            [
              106.50352918778911,
              8.719868862018577
            ],
            [
              106.49860951071604,
              8.701718811821804
            ],
            [
              106.49695283931763,
              8.683
            ],
            [
              106.49860951071604,
              8.664281188178196
            ],
            [
              106.50352918778911,
              8.646131137981422
            ],
            [
              106.5115623886385,
              8.62910132950054
            ],
            [
              106.52246502852137,
              8.613709204848737
            ],
            [
              106.53590583624187,
              8.600422445944774
            ],
            [
              106.55147641965881,
              8.589644764234519
            ],
            [
              106.56870367447415,
              8.58170363412297
            ],
            [
              106.58706415926775,
              8.576840342830161
            ],
            [
              106.606,
              8.575202659001079
            ],
            [
              106.62493584073223,
              8.576840342830161
            ],
            [
              106.64329632552584,
              8.58170363412297
            ],
            [
              106.66052358034118,
              8.589644764234519
            ],
            [
              106.67609416375812,
              8.600422445944774
            ],
            [
              106.68953497147862,
              8.613709204848737
            ],
            [
              106.7004376113615,
              8.62910132950054
            ],
            [
              106.70847081221088,
              8.646131137981422
            ],
            [
              106.71339048928395,
              8.664281188178196
            ],
            [
              106.71504716068236,
              8.683
            ]
          ]
        ]
      }
    },
    {
      "type": "Feature",
      "properties": {
        "kind": "island",
        "name": "Đảo Lý Sơn",
        "admin_note": "Quảng Ngãi",
        "description": "Đảo/quần đảo tiêu biểu được bổ sung để bản đồ Việt Nam không bị thiếu phần biển đảo.",
        "source_note": "Tọa độ tâm và vòng khoanh là tham khảo hiển thị."
      },
      "geometry": {
        "type": "Polygon",
        "coordinates": [
          [
            [
              109.15226758994207,
              15.383
            ],
            [
              109.15170141151104,
              15.3892396039406
            ],
            [
              109.15002007926304,
              15.395289620672859
            ],
            [
              109.14727467962766,
              15.40096622349982
            ],
            [
              109.14354863018356,
              15.406096931717087
            ],
            [
              109.13895514505765,
              15.410525851351741
            ],
            [
              109.13363379497103,
              15.414118411921827
            ],
            [
              109.12774626645339,
              15.416765455292342
            ],
            [
              109.12147144907948,
              15.418386552389945
            ],
            [
              109.115,
              15.418932446999639
            ],
            [
              109.10852855092051,
              15.418386552389945
            ],
            [
              109.1022537335466,
              15.416765455292342
            ],
            [
              109.09636620502896,
              15.414118411921827
            ],
            [
              109.09104485494234,
              15.410525851351741
            ],
            [
              109.08645136981643,
              15.406096931717087
            ],
            [
              109.08272532037233,
              15.40096622349982
            ],
            [
              109.07997992073695,
              15.395289620672859
            ],
            [
              109.07829858848895,
              15.3892396039406
            ],
            [
              109.07773241005792,
              15.383
            ],
            [
              109.07829858848895,
              15.376760396059398
            ],
            [
              109.07997992073695,
              15.37071037932714
            ],
            [
              109.08272532037233,
              15.365033776500178
            ],
            [
              109.08645136981643,
              15.359903068282911
            ],
            [
              109.09104485494234,
              15.355474148648257
            ],
            [
              109.09636620502896,
              15.351881588078172
            ],
            [
              109.1022537335466,
              15.349234544707656
            ],
            [
              109.10852855092051,
              15.347613447610053
            ],
            [
              109.115,
              15.34706755300036
            ],
            [
              109.12147144907948,
              15.347613447610053
            ],
            [
              109.12774626645339,
              15.349234544707656
            ],
            [
              109.13363379497103,
              15.351881588078172
            ],
            [
              109.13895514505765,
              15.355474148648257
            ],
            [
              109.14354863018356,
              15.359903068282911
            ],
            [
              109.14727467962766,
              15.365033776500178
            ],
            [
              109.15002007926304,
              15.37071037932714
            ],
            [
              109.15170141151104,
              15.376760396059398
            ],
            [
              109.15226758994207,
              15.383
            ]
          ]
        ]
      }
    },
    {
      "type": "Feature",
      "properties": {
        "kind": "island",
        "name": "Đảo Cát Bà",
        "admin_note": "Hải Phòng",
        "description": "Đảo/quần đảo tiêu biểu được bổ sung để bản đồ Việt Nam không bị thiếu phần biển đảo.",
        "source_note": "Tọa độ tâm và vòng khoanh là tham khảo hiển thị."
      },
      "geometry": {
        "type": "Polygon",
        "coordinates": [
          [
            [
              107.06226355474716,
              20.795
            ],
            [
              107.06124167021017,
              20.805919306896055
            ],
            [
              107.05820706604374,
              20.816506836177506
            ],
            [
              107.0532519471599,
              20.826440891124687
            ],
            [
              107.0465268723385,
              20.835419630504905
            ],
            [
              107.03823617957495,
              20.84317023986555
            ],
            [
              107.02863177737359,
              20.849457220863197
            ],
            [
              107.01800549063522,
              20.854089546761603
            ],
            [
              107.00668019370525,
              20.856926466682406
            ],
            [
              106.995,
              20.857881782249372
            ],
            [
              106.98331980629476,
              20.856926466682406
            ],
            [
              106.97199450936479,
              20.854089546761603
            ],
            [
              106.96136822262642,
              20.849457220863197
            ],
            [
              106.95176382042506,
              20.84317023986555
            ],
            [
              106.9434731276615,
              20.835419630504905
            ],
            [
              106.93674805284012,
              20.826440891124687
            ],
            [
              106.93179293395627,
              20.816506836177506
            ],
            [
              106.92875832978984,
              20.805919306896055
            ],
            [
              106.92773644525285,
              20.795
            ],
            [
              106.92875832978984,
              20.78408069310395
            ],
            [
              106.93179293395627,
              20.773493163822497
            ],
            [
              106.93674805284012,
              20.763559108875317
            ],
            [
              106.9434731276615,
              20.7545803694951
            ],
            [
              106.95176382042506,
              20.746829760134453
            ],
            [
              106.96136822262642,
              20.740542779136806
            ],
            [
              106.97199450936479,
              20.7359104532384
            ],
            [
              106.98331980629476,
              20.733073533317597
            ],
            [
              106.995,
              20.73211821775063
            ],
            [
              107.00668019370525,
              20.733073533317597
            ],
            [
              107.01800549063522,
              20.7359104532384
            ],
            [
              107.02863177737359,
              20.740542779136806
            ],
            [
              107.03823617957495,
              20.746829760134453
            ],
            [
              107.0465268723385,
              20.7545803694951
            ],
            [
              107.0532519471599,
              20.763559108875317
            ],
            [
              107.05820706604374,
              20.773493163822497
            ],
            [
              107.06124167021017,
              20.78408069310395
            ],
            [
              107.06226355474716,
              20.795
            ]
          ]
        ]
      }
    },
    {
      "type": "Feature",
      "properties": {
        "kind": "island",
        "name": "Đảo Bạch Long Vĩ",
        "admin_note": "Hải Phòng",
        "description": "Đảo/quần đảo tiêu biểu được bổ sung để bản đồ Việt Nam không bị thiếu phần biển đảo.",
        "source_note": "Tọa độ tâm và vòng khoanh là tham khảo hiển thị."
      },
      "geometry": {
        "type": "Polygon",
        "coordinates": [
          [
            [
              107.76027094883563,
              20.133
            ],
            [
              107.75968952712846,
              20.1392396039406
            ],
            [
              107.75796292821131,
              20.14528962067286
            ],
            [
              107.75514361391859,
              20.150966223499818
            ],
            [
              107.75131724768842,
              20.156096931717087
            ],
            [
              107.74660009172248,
              20.160525851351743
            ],
            [
              107.74113547441782,
              20.164118411921827
            ],
            [
              107.73508943540597,
              20.166765455292342
            ],
            [
              107.72864568052289,
              20.168386552389947
            ],
            [
              107.722,
              20.16893244699964
            ],
            [
              107.7153543194771,
              20.168386552389947
            ],
            [
              107.70891056459402,
              20.166765455292342
            ],
            [
              107.70286452558217,
              20.164118411921827
            ],
            [
              107.6973999082775,
              20.160525851351743
            ],
            [
              107.69268275231157,
              20.156096931717087
            ],
            [
              107.6888563860814,
              20.150966223499818
            ],
            [
              107.68603707178868,
              20.14528962067286
            ],
            [
              107.68431047287153,
              20.1392396039406
            ],
            [
              107.68372905116436,
              20.133
            ],
            [
              107.68431047287153,
              20.1267603960594
            ],
            [
              107.68603707178868,
              20.12071037932714
            ],
            [
              107.6888563860814,
              20.11503377650018
            ],
            [
              107.69268275231157,
              20.10990306828291
            ],
            [
              107.6973999082775,
              20.105474148648256
            ],
            [
              107.70286452558217,
              20.10188158807817
            ],
            [
              107.70891056459402,
              20.099234544707656
            ],
            [
              107.7153543194771,
              20.09761344761005
            ],
            [
              107.722,
              20.097067553000358
            ],
            [
              107.72864568052289,
              20.09761344761005
            ],
            [
              107.73508943540597,
              20.099234544707656
            ],
            [
              107.74113547441782,
              20.10188158807817
            ],
            [
              107.74660009172248,
              20.105474148648256
            ],
            [
              107.75131724768842,
              20.10990306828291
            ],
            [
              107.75514361391859,
              20.11503377650018
            ],
            [
              107.75796292821131,
              20.12071037932714
            ],
            [
              107.75968952712846,
              20.1267603960594
            ],
            [
              107.76027094883563,
              20.133
            ]
          ]
        ]
      }
    },
    {
      "type": "Feature",
      "properties": {
        "kind": "island",
        "name": "Đảo Cồn Cỏ",
        "admin_note": "Quảng Trị",
        "description": "Đảo/quần đảo tiêu biểu được bổ sung để bản đồ Việt Nam không bị thiếu phần biển đảo.",
        "source_note": "Tọa độ tâm và vòng khoanh là tham khảo hiển thị."
      },
      "geometry": {
        "type": "Polygon",
        "coordinates": [
          [
            [
              107.3652042799507,
              17.156
            ],
            [
              107.36477579356358,
              17.16067970295545
            ],
            [
              107.36350335374426,
              17.165217215504644
            ],
            [
              107.36142562293276,
              17.169474667624865
            ],
            [
              107.3586057319284,
              17.173322698787814
            ],
            [
              107.35512936169245,
              17.176644388513804
            ],
            [
              107.35110213997535,
              17.17933880894137
            ],
            [
              107.34664643187114,
              17.181324091469257
            ],
            [
              107.34189762181585,
              17.18253991429246
            ],
            [
              107.337,
              17.18294933524973
            ],
            [
              107.33210237818416,
              17.18253991429246
            ],
            [
              107.32735356812887,
              17.181324091469257
            ],
            [
              107.32289786002465,
              17.17933880894137
            ],
            [
              107.31887063830756,
              17.176644388513804
            ],
            [
              107.3153942680716,
              17.173322698787814
            ],
            [
              107.31257437706725,
              17.169474667624865
            ],
            [
              107.31049664625574,
              17.165217215504644
            ],
            [
              107.30922420643643,
              17.16067970295545
            ],
            [
              107.3087957200493,
              17.156
            ],
            [
              107.30922420643643,
              17.15132029704455
            ],
            [
              107.31049664625574,
              17.146782784495354
            ],
            [
              107.31257437706725,
              17.142525332375133
            ],
            [
              107.3153942680716,
              17.138677301212184
            ],
            [
              107.31887063830756,
              17.135355611486194
            ],
            [
              107.32289786002465,
              17.132661191058627
            ],
            [
              107.32735356812887,
              17.13067590853074
            ],
            [
              107.33210237818416,
              17.12946008570754
            ],
            [
              107.337,
              17.129050664750267
            ],
            [
              107.34189762181585,
              17.12946008570754
            ],
            [
              107.34664643187114,
              17.13067590853074
            ],
            [
              107.35110213997535,
              17.132661191058627
            ],
            [
              107.35512936169245,
              17.135355611486194
            ],
            [
              107.3586057319284,
              17.138677301212184
            ],
            [
              107.36142562293276,
              17.142525332375133
            ],
            [
              107.36350335374426,
              17.146782784495354
            ],
            [
              107.36477579356358,
              17.15132029704455
            ],
            [
              107.3652042799507,
              17.156
            ]
          ]
        ]
      }
    },
    {
      "type": "Feature",
      "properties": {
        "kind": "island_group",
        "name": "Cù Lao Chàm",
        "admin_note": "Đà Nẵng/Quảng Nam sau sắp xếp",
        "description": "Đảo/quần đảo tiêu biểu được bổ sung để bản đồ Việt Nam không bị thiếu phần biển đảo.",
        "source_note": "Tọa độ tâm và vòng khoanh là tham khảo hiển thị."
      },
      "geometry": {
        "type": "Polygon",
        "coordinates": [
          [
            [
              108.5583726588256,
              15.958
            ],
            [
              108.55780488416214,
              15.964239603940602
            ],
            [
              108.55611881171758,
              15.97028962067286
            ],
            [
              108.55336567194995,
              15.975966223499821
            ],
            [
              108.54962911761794,
              15.981096931717088
            ],
            [
              108.54502268203414,
              15.985525851351742
            ],
            [
              108.5396863294128,
              15.989118411921828
            ],
            [
              108.533782202128,
              15.991765455292343
            ],
            [
              108.52748969409964,
              15.993386552389946
            ],
            [
              108.521,
              15.99393244699964
            ],
            [
              108.51451030590036,
              15.993386552389946
            ],
            [
              108.508217797872,
              15.991765455292343
            ],
            [
              108.5023136705872,
              15.989118411921828
            ],
            [
              108.49697731796586,
              15.985525851351742
            ],
            [
              108.49237088238206,
              15.981096931717088
            ],
            [
              108.48863432805005,
              15.975966223499821
            ],
            [
              108.48588118828242,
              15.97028962067286
            ],
            [
              108.48419511583786,
              15.964239603940602
            ],
            [
              108.4836273411744,
              15.958
            ],
            [
              108.48419511583786,
              15.951760396059399
            ],
            [
              108.48588118828242,
              15.94571037932714
            ],
            [
              108.48863432805005,
              15.94003377650018
            ],
            [
              108.49237088238206,
              15.934903068282912
            ],
            [
              108.49697731796586,
              15.930474148648258
            ],
            [
              108.5023136705872,
              15.926881588078173
            ],
            [
              108.508217797872,
              15.924234544707657
            ],
            [
              108.51451030590036,
              15.922613447610054
            ],
            [
              108.521,
              15.92206755300036
            ],
            [
              108.52748969409964,
              15.922613447610054
            ],
            [
              108.533782202128,
              15.924234544707657
            ],
            [
              108.5396863294128,
              15.926881588078173
            ],
            [
              108.54502268203414,
              15.930474148648258
            ],
            [
              108.54962911761794,
              15.934903068282912
            ],
            [
              108.55336567194995,
              15.94003377650018
            ],
            [
              108.55611881171758,
              15.94571037932714
            ],
            [
              108.55780488416214,
              15.951760396059399
            ],
            [
              108.5583726588256,
              15.958
            ]
          ]
        ]
      }
    },
    {
      "type": "Feature",
      "properties": {
        "kind": "island",
        "name": "Đảo Phú Quý",
        "admin_note": "Lâm Đồng/Bình Thuận sau sắp xếp",
        "description": "Đảo/quần đảo tiêu biểu được bổ sung để bản đồ Việt Nam không bị thiếu phần biển đảo.",
        "source_note": "Tọa độ tâm và vòng khoanh là tham khảo hiển thị."
      },
      "geometry": {
        "type": "Polygon",
        "coordinates": [
          [
            [
              108.9756849223318,
              10.53
            ],
            [
              108.97499086570812,
              10.53779950492575
            ],
            [
              108.97292978439637,
              10.545362025841074
            ],
            [
              108.96956430330926,
              10.552457779374775
            ],
            [
              108.9649966808866,
              10.558871164646359
            ],
            [
              108.95936570202437,
              10.564407314189676
            ],
            [
              108.9528424611659,
              10.568898014902283
            ],
            [
              108.94562516368374,
              10.572206819115427
            ],
            [
              108.93793310350978,
              10.574233190487432
            ],
            [
              108.93,
              10.57491555874955
            ],
            [
              108.92206689649024,
              10.574233190487432
            ],
            [
              108.91437483631627,
              10.572206819115427
            ],
            [
              108.90715753883411,
              10.568898014902283
            ],
            [
              108.90063429797564,
              10.564407314189676
            ],
            [
              108.89500331911341,
              10.558871164646359
            ],
            [
              108.89043569669076,
              10.552457779374775
            ],
            [
              108.88707021560364,
              10.545362025841074
            ],
            [
              108.88500913429189,
              10.53779950492575
            ],
            [
              108.88431507766822,
              10.53
            ],
            [
              108.88500913429189,
              10.522200495074248
            ],
            [
              108.88707021560364,
              10.514637974158925
            ],
            [
              108.89043569669076,
              10.507542220625224
            ],
            [
              108.89500331911341,
              10.50112883535364
            ],
            [
              108.90063429797564,
              10.495592685810323
            ],
            [
              108.90715753883411,
              10.491101985097716
            ],
            [
              108.91437483631627,
              10.487793180884571
            ],
            [
              108.92206689649024,
              10.485766809512567
            ],
            [
              108.93,
              10.485084441250448
            ],
            [
              108.93793310350978,
              10.485766809512567
            ],
            [
              108.94562516368374,
              10.487793180884571
            ],
            [
              108.9528424611659,
              10.491101985097716
            ],
            [
              108.95936570202437,
              10.495592685810323
            ],
            [
              108.9649966808866,
              10.50112883535364
            ],
            [
              108.96956430330926,
              10.507542220625224
            ],
            [
              108.97292978439637,
              10.514637974158925
            ],
            [
              108.97499086570812,
              10.522200495074248
            ],
            [
              108.9756849223318,
              10.53
            ]
          ]
        ]
      }
    },
    {
      "type": "Feature",
      "properties": {
        "kind": "island_group",
        "name": "Quần đảo Nam Du",
        "admin_note": "Kiên Giang/An Giang sau sắp xếp",
        "description": "Đảo/quần đảo tiêu biểu được bổ sung để bản đồ Việt Nam không bị thiếu phần biển đảo.",
        "source_note": "Tọa độ tâm và vòng khoanh là tham khảo hiển thị."
      },
      "geometry": {
        "type": "Polygon",
        "coordinates": [
          [
            [
              104.39379191029941,
              9.69
            ],
            [
              104.39282276784233,
              9.700919306896052
            ],
            [
              104.3899447873742,
              9.711506836177502
            ],
            [
              104.38524541487523,
              9.721440891124685
            ],
            [
              104.37886743840082,
              9.730419630504903
            ],
            [
              104.3710046495387,
              9.738170239865548
            ],
            [
              104.3618959551497,
              9.744457220863197
            ],
            [
              104.35181811830363,
              9.7490895467616
            ],
            [
              104.34107734897339,
              9.751926466682406
            ],
            [
              104.33,
              9.752881782249371
            ],
            [
              104.31892265102661,
              9.751926466682406
            ],
            [
              104.30818188169637,
              9.7490895467616
            ],
            [
              104.29810404485029,
              9.744457220863197
            ],
            [
              104.28899535046129,
              9.738170239865548
            ],
            [
              104.28113256159918,
              9.730419630504903
            ],
            [
              104.27475458512477,
              9.721440891124685
            ],
            [
              104.27005521262579,
              9.711506836177502
            ],
            [
              104.26717723215766,
              9.700919306896052
            ],
            [
              104.26620808970058,
              9.69
            ],
            [
              104.26717723215766,
              9.679080693103948
            ],
            [
              104.27005521262579,
              9.668493163822497
            ],
            [
              104.27475458512477,
              9.658559108875314
            ],
            [
              104.28113256159918,
              9.649580369495096
            ],
            [
              104.28899535046129,
              9.641829760134451
            ],
            [
              104.29810404485029,
              9.635542779136802
            ],
            [
              104.30818188169637,
              9.6309104532384
            ],
            [
              104.31892265102661,
              9.628073533317593
            ],
            [
              104.33,
              9.627118217750628
            ],
            [
              104.34107734897339,
              9.628073533317593
            ],
            [
              104.35181811830363,
              9.6309104532384
            ],
            [
              104.3618959551497,
              9.635542779136802
            ],
            [
              104.3710046495387,
              9.641829760134451
            ],
            [
              104.37886743840082,
              9.649580369495096
            ],
            [
              104.38524541487523,
              9.658559108875314
            ],
            [
              104.3899447873742,
              9.668493163822497
            ],
            [
              104.39282276784233,
              9.679080693103947
            ],
            [
              104.39379191029941,
              9.69
            ]
          ]
        ]
      }
    },
    {
      "type": "Feature",
      "properties": {
        "kind": "island",
        "name": "Đảo Thổ Chu",
        "admin_note": "Kiên Giang/An Giang sau sắp xếp",
        "description": "Đảo/quần đảo tiêu biểu được bổ sung để bản đồ Việt Nam không bị thiếu phần biển đảo.",
        "source_note": "Tọa độ tâm và vòng khoanh là tham khảo hiển thị."
      },
      "geometry": {
        "type": "Polygon",
        "coordinates": [
          [
            [
              103.54551445570584,
              9.305
            ],
            [
              103.54482298885326,
              9.312799504925751
            ],
            [
              103.54276959816588,
              9.320362025841074
            ],
            [
              103.53941667488068,
              9.327457779374775
            ],
            [
              103.53486609587505,
              9.333871164646359
            ],
            [
              103.52925612818935,
              9.339407314189677
            ],
            [
              103.52275722785292,
              9.343898014902283
            ],
            [
              103.51556686066391,
              9.347206819115428
            ],
            [
              103.50790350229082,
              9.349233190487432
            ],
            [
              103.5,
              9.34991555874955
            ],
            [
              103.49209649770918,
              9.349233190487432
            ],
            [
              103.48443313933609,
              9.347206819115428
            ],
            [
              103.47724277214708,
              9.343898014902283
            ],
            [
              103.47074387181065,
              9.339407314189677
            ],
            [
              103.46513390412495,
              9.333871164646359
            ],
            [
              103.46058332511932,
              9.327457779374775
            ],
            [
              103.45723040183412,
              9.320362025841074
            ],
            [
              103.45517701114674,
              9.312799504925751
            ],
            [
              103.45448554429416,
              9.305
            ],
            [
              103.45517701114674,
              9.297200495074248
            ],
            [
              103.45723040183412,
              9.289637974158925
            ],
            [
              103.46058332511932,
              9.282542220625224
            ],
            [
              103.46513390412495,
              9.27612883535364
            ],
            [
              103.47074387181065,
              9.270592685810323
            ],
            [
              103.47724277214708,
              9.266101985097716
            ],
            [
              103.48443313933609,
              9.262793180884572
            ],
            [
              103.49209649770918,
              9.260766809512567
            ],
            [
              103.5,
              9.260084441250449
            ],
            [
              103.50790350229082,
              9.260766809512567
            ],
            [
              103.51556686066391,
              9.262793180884572
            ],
            [
              103.52275722785292,
              9.266101985097716
            ],
            [
              103.52925612818935,
              9.270592685810323
            ],
            [
              103.53486609587505,
              9.27612883535364
            ],
            [
              103.53941667488068,
              9.282542220625224
            ],
            [
              103.54276959816588,
              9.289637974158925
            ],
            [
              103.54482298885326,
              9.297200495074248
            ],
            [
              103.54551445570584,
              9.305
            ]
          ]
        ]
      }
    },
    {
      "type": "Feature",
      "properties": {
        "kind": "representative_feature",
        "name": "Đảo Phú Lâm",
        "admin_note": "Điểm đại diện thuộc quần đảo Hoàng Sa",
        "description": "Điểm/đảo đại diện để hỗ trợ nhận diện quần đảo trên bản đồ.",
        "source_note": "Tọa độ tham khảo hiển thị."
      },
      "geometry": {
        "type": "Polygon",
        "coordinates": [
          [
            [
              112.3634631061729,
              16.833
            ],
            [
              112.36266362021738,
              16.8388125010129
            ],
            [
              112.36031964599744,
              16.844228889687386
            ],
            [
              112.35659092148256,
              16.848880048086293
            ],
            [
              112.35173155308645,
              16.85244900745114
            ],
            [
              112.34607269873482,
              16.854692549099195
            ],
            [
              112.34,
              16.855457779374774
            ],
            [
              112.33392730126519,
              16.854692549099195
            ],
            [
              112.32826844691355,
              16.85244900745114
            ],
            [
              112.32340907851744,
              16.848880048086293
            ],
            [
              112.31968035400257,
              16.844228889687386
            ],
            [
              112.31733637978263,
              16.8388125010129
            ],
            [
              112.3165368938271,
              16.833
            ],
            [
              112.31733637978263,
              16.827187498987097
            ],
            [
              112.31968035400257,
              16.82177111031261
            ],
            [
              112.32340907851744,
              16.817119951913703
            ],
            [
              112.32826844691355,
              16.81355099254886
            ],
            [
              112.33392730126519,
              16.811307450900802
            ],
            [
              112.34,
              16.810542220625223
            ],
            [
              112.34607269873482,
              16.811307450900802
            ],
            [
              112.35173155308645,
              16.81355099254886
            ],
            [
              112.35659092148256,
              16.817119951913703
            ],
            [
              112.36031964599744,
              16.82177111031261
            ],
            [
              112.36266362021738,
              16.827187498987097
            ],
            [
              112.3634631061729,
              16.833
            ]
          ]
        ]
      }
    },
    {
      "type": "Feature",
      "properties": {
        "kind": "representative_feature",
        "name": "Đảo Tri Tôn",
        "admin_note": "Điểm đại diện thuộc quần đảo Hoàng Sa",
        "description": "Điểm/đảo đại diện để hỗ trợ nhận diện quần đảo trên bản đồ.",
        "source_note": "Tọa độ tham khảo hiển thị."
      },
      "geometry": {
        "type": "Polygon",
        "coordinates": [
          [
            [
              111.22333763776236,
              15.783
            ],
            [
              111.22254242703924,
              15.788812501012902
            ],
            [
              111.22021098716652,
              15.794228889687387
            ],
            [
              111.21650220191864,
              15.798880048086295
            ],
            [
              111.21166881888118,
              15.802449007451141
            ],
            [
              111.2060402251206,
              15.804692549099197
            ],
            [
              111.2,
              15.805457779374775
            ],
            [
              111.1939597748794,
              15.804692549099197
            ],
            [
              111.18833118111883,
              15.802449007451141
            ],
            [
              111.18349779808136,
              15.798880048086295
            ],
            [
              111.17978901283348,
              15.794228889687387
            ],
            [
              111.17745757296076,
              15.788812501012902
            ],
            [
              111.17666236223765,
              15.783
            ],
            [
              111.17745757296076,
              15.777187498987097
            ],
            [
              111.17978901283348,
              15.771771110312612
            ],
            [
              111.18349779808136,
              15.767119951913704
            ],
            [
              111.18833118111883,
              15.763550992548858
            ],
            [
              111.1939597748794,
              15.761307450900802
            ],
            [
              111.2,
              15.760542220625224
            ],
            [
              111.2060402251206,
              15.761307450900802
            ],
            [
              111.21166881888118,
              15.763550992548858
            ],
            [
              111.21650220191864,
              15.767119951913704
            ],
            [
              111.22021098716652,
              15.771771110312612
            ],
            [
              111.22254242703924,
              15.777187498987097
            ],
            [
              111.22333763776236,
              15.783
            ]
          ]
        ]
      }
    },
    {
      "type": "Feature",
      "properties": {
        "kind": "representative_feature",
        "name": "Đảo Trường Sa",
        "admin_note": "Điểm đại diện thuộc quần đảo Trường Sa",
        "description": "Điểm/đảo đại diện để hỗ trợ nhận diện quần đảo trên bản đồ.",
        "source_note": "Tọa độ tham khảo hiển thị."
      },
      "geometry": {
        "type": "Polygon",
        "coordinates": [
          [
            [
              111.9407158023906,
              8.644
            ],
            [
              111.93994178019396,
              8.649812501012903
            ],
            [
              111.93767246193761,
              8.655228889687388
            ],
            [
              111.93406249791049,
              8.659880048086295
            ],
            [
              111.9293579011953,
              8.663449007451142
            ],
            [
              111.92387928228348,
              8.665692549099198
            ],
            [
              111.918,
              8.666457779374776
            ],
            [
              111.91212071771653,
              8.665692549099198
            ],
            [
              111.90664209880471,
              8.663449007451142
            ],
            [
              111.90193750208952,
              8.659880048086295
            ],
            [
              111.8983275380624,
              8.655228889687388
            ],
            [
              111.89605821980605,
              8.649812501012903
            ],
            [
              111.89528419760941,
              8.644
            ],
            [
              111.89605821980605,
              8.638187498987097
            ],
            [
              111.8983275380624,
              8.632771110312612
            ],
            [
              111.90193750208952,
              8.628119951913705
            ],
            [
              111.90664209880471,
              8.624550992548858
            ],
            [
              111.91212071771653,
              8.622307450900802
            ],
            [
              111.918,
              8.621542220625225
            ],
            [
              111.92387928228348,
              8.622307450900802
            ],
            [
              111.9293579011953,
              8.624550992548858
            ],
            [
              111.93406249791049,
              8.628119951913705
            ],
            [
              111.93767246193761,
              8.632771110312612
            ],
            [
              111.93994178019396,
              8.638187498987097
            ],
            [
              111.9407158023906,
              8.644
            ]
          ]
        ]
      }
    },
    {
      "type": "Feature",
      "properties": {
        "kind": "representative_feature",
        "name": "Đảo Song Tử Tây",
        "admin_note": "Điểm đại diện thuộc quần đảo Trường Sa",
        "description": "Điểm/đảo đại diện để hỗ trợ nhận diện quần đảo trên bản đồ.",
        "source_note": "Tọa độ tham khảo hiển thị."
      },
      "geometry": {
        "type": "Polygon",
        "coordinates": [
          [
            [
              114.35291218418826,
              11.43
            ],
            [
              114.35213147044414,
              11.435812501012903
            ],
            [
              114.34984253356322,
              11.441228889687387
            ],
            [
              114.3462013608113,
              11.445880048086295
            ],
            [
              114.34145609209413,
              11.449449007451141
            ],
            [
              114.33593010963281,
              11.451692549099198
            ],
            [
              114.33,
              11.452457779374775
            ],
            [
              114.32406989036718,
              11.451692549099198
            ],
            [
              114.31854390790586,
              11.449449007451141
            ],
            [
              114.31379863918869,
              11.445880048086295
            ],
            [
              114.31015746643678,
              11.441228889687387
            ],
            [
              114.30786852955586,
              11.435812501012903
            ],
            [
              114.30708781581174,
              11.43
            ],
            [
              114.30786852955586,
              11.424187498987097
            ],
            [
              114.31015746643678,
              11.418771110312612
            ],
            [
              114.31379863918869,
              11.414119951913705
            ],
            [
              114.31854390790586,
              11.410550992548858
            ],
            [
              114.32406989036718,
              11.408307450900802
            ],
            [
              114.33,
              11.407542220625224
            ],
            [
              114.33593010963281,
              11.408307450900802
            ],
            [
              114.34145609209413,
              11.410550992548858
            ],
            [
              114.3462013608113,
              11.414119951913705
            ],
            [
              114.34984253356322,
              11.418771110312612
            ],
            [
              114.35213147044414,
              11.424187498987097
            ],
            [
              114.35291218418826,
              11.43
            ]
          ]
        ]
      }
    },
    {
      "type": "Feature",
      "properties": {
        "kind": "representative_feature",
        "name": "Đảo Sinh Tồn",
        "admin_note": "Điểm đại diện thuộc quần đảo Trường Sa",
        "description": "Điểm/đảo đại diện để hỗ trợ nhận diện quần đảo trên bản đồ.",
        "source_note": "Tọa độ tham khảo hiển thị."
      },
      "geometry": {
        "type": "Polygon",
        "coordinates": [
          [
            [
              114.34279585835084,
              9.88
            ],
            [
              114.3420191083135,
              9.885812501012904
            ],
            [
              114.33974179243289,
              9.891228889687389
            ],
            [
              114.33611910602284,
              9.895880048086296
            ],
            [
              114.33139792917541,
              9.899449007451143
            ],
            [
              114.32590000229065,
              9.901692549099199
            ],
            [
              114.32,
              9.902457779374776
            ],
            [
              114.31409999770933,
              9.901692549099199
            ],
            [
              114.30860207082458,
              9.899449007451143
            ],
            [
              114.30388089397715,
              9.895880048086296
            ],
            [
              114.3002582075671,
              9.891228889687389
            ],
            [
              114.29798089168649,
              9.885812501012904
            ],
            [
              114.29720414164915,
              9.88
            ],
            [
              114.29798089168649,
              9.874187498987098
            ],
            [
              114.3002582075671,
              9.868771110312613
            ],
            [
              114.30388089397715,
              9.864119951913706
            ],
            [
              114.30860207082458,
              9.860550992548859
            ],
            [
              114.31409999770933,
              9.858307450900803
            ],
            [
              114.32,
              9.857542220625225
            ],
            [
              114.32590000229065,
              9.858307450900803
            ],
            [
              114.33139792917541,
              9.860550992548859
            ],
            [
              114.33611910602284,
              9.864119951913706
            ],
            [
              114.33974179243289,
              9.868771110312613
            ],
            [
              114.3420191083135,
              9.874187498987098
            ],
            [
              114.34279585835084,
              9.88
            ]
          ]
        ]
      }
    }
  ]
}